[{"OBJECT_NAME":"STARLINK-2705","OBJECT_ID":"2021-044AL","EPOCH":"2026-03-09T08:07:12.850752","MEAN_MOTION":15.31035302,"ECCENTRICITY":0.00015812,"INCLINATION":53.1598,"RA_OF_ASC_NODE":105.8091,"ARG_OF_PERICENTER":77.9359,"MEAN_ANOMALY":282.1819,"EPHEMERIS_TYPE":0,"CLASSIFICATION_TYPE":"U","NORAD_CAT_ID":48672,"ELEMENT_SET_NO":999,"REV_AT_EPOCH":26390,"BSTAR":-0.00015241071,"MEAN_MOTION_DOT":-4.992e-5,"MEAN_MOTION_DDOT":0},{"OBJECT_NAME":"TITAN 3C TRANSTAGE DEB","OBJECT_ID":"1965-082PT","EPOCH":"2026-03-09T13:23:41.116128","MEAN_MOTION":15.28908269,"ECCENTRICITY":0.00104371,"INCLINATION":32.0266,"RA_OF_ASC_NODE":255.1391,"ARG_OF_PERICENTER":172.8339,"MEAN_ANOMALY":187.2474,"EPHEMERIS_TYPE":0,"CLASSIFICATION_TYPE":"U","NORAD_CAT_ID":3462,"ELEMENT_SET_NO":999,"REV_AT_EPOCH":24824,"BSTAR":0.0004444037,"MEAN_MOTION_DOT":0.00012939,"MEAN_MOTION_DDOT":0}]
